COSMOS 1892             
1 18421U 87088A   20034.06001870  .00000469  00000-0  21999-4 0  9991
2 18421  82.4984  47.5335 0015346 170.1769 189.9768 15.17027314764242
SL-14 R/B               
1 18749U 88001B   20033.62810545  .00000063  00000-0  47265-5 0  9993
2 18749  82.5156 124.9418 0019448  30.1533  88.5044 14.83208512732834
COSMOS 1933             
1 18958U 88020A   20034.04341599  .00000074  00000-0  32983-5 0  9994
2 18958  82.5279 256.3397 0010149 250.8728 109.1400 15.03679315714735
SL-3 R/B                
1 19046U 88032B   20034.15201484  .00000852  00000-0  67453-4 0  9999
2 19046  97.4159  61.1235 0036694 306.8306  52.9556 15.02665626716644
SL-16 R/B               
1 19120U 88039B   20033.85890247 -.00000003  00000-0  21670-4 0  9996
2 19120  71.0150  95.0408 0021092 161.1038 199.0874 14.19206742642689
COSMOS 1953             
1 19210U 88050A   20034.23039073  .00000279  00000-0  17151-4 0  9997
2 19210  82.5182 181.0764 0012766 216.1224 143.9142 15.05907932701315
SL-8 R/B                
1 19257U 88053B   20034.02449111  .00000091  00000-0  39296-4 0  9992
2 19257  74.0471 249.9971 0021519 262.8411 247.8913 14.37457389656543
COSMOS 1975             
1 19573U 88093A   20033.70844050  .00000166  00000-0  97026-5 0  9991
2 19573  82.5221 135.6654 0012884 264.2809  95.6949 15.04813747683099
SL-14 R/B               
1 19574U 88093B   20034.18425196  .00000067  00000-0  51700-5 0  9990
2 19574  82.5344 326.5296 0021426 183.9938 298.5566 14.83318695670814
SL-16 R/B               
1 19650U 88102B   20034.25461918 -.00000287  00000-0 -12142-3 0  9997
2 19650  71.0002 154.2020 0013677 169.7833 190.3571 14.15785474611749
INTERCOSMOS 24          
1 20261U 89080A   20033.85239400  .00000046  00000-0  58041-5 0  9998
2 20261  82.6030 108.0594 1203637  40.7502 327.7585 12.56097369386977
SL-14 R/B               
1 20262U 89080C   20033.79139196  .00000073  00000-0  19863-4 0  9991
2 20262  82.5960 160.8293 1236780 226.4044 122.7745 12.48933179381627
DELTA 2 R/B(1)          
1 20303U 89085B   20034.00267067  .00001280  00000-0  43769-4 0  9999
2 20303  35.6243 141.2004 0095237  51.6418 309.2822 15.26904133647889
DELTA 1 R/B             
1 20323U 89089B   20033.94881938  .00000023  00000-0  15234-4 0  9996
2 20323  97.0687 201.6001 0070371 298.1457  61.2642 14.48331882573258
DELTA 2 R/B(1)          
1 20362U 89097B   20034.00317978  .00158404  11593-4  32598-3 0  9995
2 20362  35.5998 299.6791 0010739   5.8458 117.8536 15.98146096650660
ARIANE 40 R/B           
1 20443U 90005H   20033.76848184 -.00000034  00000-0  34287-5 0  9998
2 20443  98.5958  95.6911 0010846  33.1142 327.0722 14.38080297572877
DELTA 2 R/B(1)          
1 20453U 90008B   20033.97836522  .00000610  00000-0  36195-4 0  9996
2 20453  35.6274 335.0094 0282707 254.2245 102.7126 14.85265338591040
COSMOS 2058             
1 20465U 90010A   20034.18308116  .00000245  00000-0  18466-4 0  9994
2 20465  82.4875  43.5089 0014007 300.2287  59.7549 14.97961195608078
SL-14 R/B               
1 20466U 90010B   20033.91154783  .00000069  00000-0  57018-5 0  9995
2 20466  82.5030 193.6137 0021879  64.7567 295.5911 14.81374899598660
SL-14 R/B               
1 20511U 90018B   20033.79155774  .00000051  00000-0  37018-5 0  9990
2 20511  82.5250 139.5124 0016993 198.0474 321.7426 14.80030941614140
HST                     
1 20580U 90037B   20033.68834705  .00000424  00000-0  14811-4 0  9992
2 20580  28.4692 137.5904 0002927  70.5196  74.6324 15.09332696435434
SL-16 R/B               
1 20625U 90046B   20034.44965663  .00000137  00000-0  96069-4 0  9991
2 20625  70.9998 291.5682 0012032  86.6037 273.6461 14.14653866533778
COSMOS 2084             
1 20663U 90055A   20034.07511122 -.00000050  00000-0  13317-4 0  9999
2 20663  62.7936 260.1819 0040850 210.6329 149.2380 14.92051123603159
SL-6 R/B(2)             
1 20666U 90055D   20034.48551658 -.00000048  00000-0  13167-4 0  9995
2 20666  62.7858 175.5483 0028056 298.0515  61.7742 14.92304681604625
SL-8 R/B                
1 20775U 90078B   20034.24204797  .00000891  00000-0  43076-4 0  9991
2 20775  82.9296 338.0984 0573469 253.4738 100.2736 14.34021461486362
SL-8 R/B                
1 21088U 91006B   20034.11230767  .00000137  00000-0  12257-3 0  9992
2 21088  82.9418  25.8454 0023263 147.0719 329.0021 13.77139177457588
OKEAN-3                 
1 21397U 91039A   20034.19096903  .00000222  00000-0  18908-4 0  9996
2 21397  82.5234 305.2586 0016294 262.1301  97.8069 14.92884855532085
COSMOS 2151             
1 21422U 91042A   20034.46580269  .00000166  00000-0  13768-4 0  9998
2 21422  82.4985  51.4648 0013300 329.8117  30.2335 14.92104624551836
SL-14 R/B               
1 21423U 91042B   20033.81926922  .00000051  00000-0  37205-5 0  9993
2 21423  82.4960 143.6777 0017192 348.6149  11.4673 14.79781519544640
ERS-1                   
1 21574U 91050A   20033.84830784  .00000029  00000-0  24468-4 0  9993
2 21574  98.5807 347.2943 0032527 332.6682  27.2793 14.37728031495632
ARIANE 40 R/B           
1 21610U 91050F   20034.06616037 -.00000016  00000-0  87697-5 0  9993
2 21610  98.4824 104.5485 0002282 320.2552 101.3789 14.40893697498200
INTERCOSMOS 25          
1 21819U 91086A   20034.01250512  .00000882  00000-0  17696-3 0  9990
2 21819  82.5938 207.3304 1516270 200.6245 152.6702 12.05113097227977
SL-8 R/B                
1 21876U 92008B   20034.04208039  .00000036  00000-0  21921-4 0  9996
2 21876  82.9281 123.0822 0033824 230.2054 303.3860 13.75643900403255
SL-8 R/B                
1 21938U 92020B   20034.06959480 -.00000037  00000-0 -54070-4 0  9998
2 21938  82.9307   7.0796 0030049  33.5405  35.5116 13.75275814395066
COSMOS 2219             
1 22219U 92076A   20034.20579040  .00000082  00000-0  68262-4 0  9994
2 22219  71.0586 350.2387 0017859 354.8402   5.2533 14.13629098403704
SL-16 R/B               
1 22220U 92076B   20033.55744185  .00000078  00000-0  63338-4 0  9991
2 22220  70.9989 197.6511 0015061 252.5058 168.5957 14.16452886406761
COSMOS 2221             
1 22236U 92080A   20034.04984695  .00000161  00000-0  14770-4 0  9999
2 22236  82.5058 231.5807 0017869  54.2098 306.0778 14.87892386449149
SL-16 R/B               
1 22285U 92093B   20034.21140930  .00000283  00000-0  17074-3 0  9996
2 22285  71.0230 356.2371 0002188 119.0453 241.0889 14.15039705398202
COSMOS 2228             
1 22286U 92094A   20033.88727399  .00000201  00000-0  18989-4 0  9997
2 22286  82.5204 187.8120 0021507 167.7138 192.4609 14.88107631444280
SL-16 R/B               
1 22566U 93016B   20033.87695694  .00000286  00000-0  17245-3 0  9990
2 22566  71.0057 210.3398 0008467 117.8042 242.3940 14.14964483387159
COSMOS 2242             
1 22626U 93024A   20033.98634668  .00000180  00000-0  16831-4 0  9996
2 22626  82.5202 215.7813 0019243 166.8703 193.3020 14.87964369448715
SL-16 R/B               
1 22803U 93059B   20033.91755843 -.00000000  00000-0  23731-4 0  9992
2 22803  70.9909  24.8915 0017333 354.3729   5.7197 14.16818980364367
ARIANE 40 R/B           
1 22830U 93061H   20034.11833771 -.00000042  00000-0  13060-5 0  9996
2 22830  98.7860  81.9139 0010817   4.4680 355.6597 14.31443924375465
COSMOS 2278             
1 23087U 94023A   20033.68659487 -.00000220  00000-0 -91042-4 0  9995
2 23087  71.0550 151.4324 0009546 205.7850 154.2797 14.13803608330253
SL-16 R/B               
1 23088U 94023B   20033.99534087 -.00000091  00000-0 -22550-4 0  9992
2 23088  70.9989  65.4378 0001050  65.9096 294.2136 14.14676057331420
SL-16 R/B               
1 23343U 94074B   20034.13643201 -.00000015  00000-0  52384-5 0  9992
2 23343  98.0208  88.1825 0006001 217.2625 195.3301 14.76808904358441
SL-16 R/B               
1 23405U 94077B   20034.06001608  .00000208  00000-0  13173-3 0  9999
2 23405  70.9849 355.1377 0004734 287.6689  72.3917 14.15217578301451
ERS-2                   
1 23560U 95021A   20033.89521836  .00000822  00000-0  38762-4 0  9995
2 23560  98.5211 169.0563 0002221 276.3577  83.7403 15.22994193321486
ARIANE 40+ R/B          
1 23561U 95021B   20034.11569498  .00000020  00000-0  21722-4 0  9996
2 23561  98.7431  71.1038 0005927 298.9656 124.7400 14.37953931299125
SL-16 R/B               
1 23705U 95058B   20033.72937966 -.00000175  00000-0 -65507-4 0  9993
2 23705  71.0213 173.7196 0014859 273.0610  86.8813 14.15131418252779
SL-16 R/B               
1 24298U 96051B   20033.89946142  .00000155  00000-0  11018-3 0  9992
2 24298  70.8385 196.2905 0018331 203.1182 156.9115 14.12477946207218
ORBVIEW 2 (SEASTAR)     
1 24883U 97037A   20034.27406853  .00000015  00000-0  21509-4 0  9992
2 24883  98.5982 148.3601 0003202 130.7016 229.4447 14.33538230189345
SL-16 R/B               
1 25400U 98043G   20034.24135821 -.00000013  00000-0  12835-4 0  9998
2 25400  98.5963 332.7501 0010209  15.6519 344.4975 14.25448423121752
SL-16 R/B               
1 25407U 98045B   20033.82793808 -.00000205  00000-0 -79855-4 0  9994
2 25407  71.0107 182.6312 0008304 198.9337 161.1479 14.15795517111887
ISS (ZARYA)             
1 25544U 98067A   20034.66618427  .00001970  00000-0  43728-4 0  9994
2 25544  51.6425 294.0632 0005380 226.3931 219.2527 15.49140727211162
SL-8 R/B                
1 25723U 99022C   20033.97867577  .00013412  00000-0  11241-3 0  9998
2 25723  48.4123  26.5151 0006638  33.0079 327.1286 15.70172646156660
CZ-4B R/B               
1 25732U 99025C   20034.03302848 -.00000032  00000-0  65225-5 0  9992
2 25732  98.9595  61.7285 0036549 235.5395 176.8162 14.17672366 72636
OKEAN-O                 
1 25860U 99039A   20034.46258001  .00000031  00000-0  12070-4 0  9994
2 25860  98.2223  51.0455 0000859  70.4308 289.6994 14.76644292105685
SL-16 R/B               
1 25861U 99039B   20034.53571875  .00000014  00000-0  93933-5 0  9999
2 25861  98.2040  34.0578 0014642 228.0291 243.3616 14.78562315107820
